    CK13S010  2013 08  2.5156  2.820012  0.999068  165.9673  221.5994   83.9559  20170616  13.0  4.0  C/2013 S1 (Catalina)                                     MPC 86230
    PK13T010  2013 07 29.5789  2.220388  0.621824  346.1209   10.1464   24.2180  20170616  16.5  4.0  P/2013 T1 (PANSTARRS)                                    MPC 85835
    PK13T020  2019 11 28.2829  1.718939  0.505848  345.5438    1.1231    9.5498  20170616  16.0  4.0  P/2013 T2 (Schwartz)                                     MPC 86643
    CK13T05W  2014 08 17.9822  5.836189  0.979863  190.5088  319.6934   31.4051  20170616   7.5  4.0  C/2013 TW5 (Spacewatch)                                  MPC104789
    PK13TB7L  2014 02 17.7624  1.120724  0.689250  112.2972    3.3112    9.3649  20170616  17.5  4.0  P/2013 TL117 (Lemmon)                                    MPC 88696
    CK13U010  2013 11 18.2254  2.417268  0.796604  143.0821  211.2516   23.9403  20170616  13.5  4.0  C/2013 U1 (Catalina)                                     MPC 86643
    CK13U020  2014 10 27.6851  5.141607  0.991924  107.9383    6.8838   43.2293  20170616   7.5  4.0  C/2013 U2 (Holvorcem)                                    MPC104790
    CK13U04Q  2014 07  4.6375  1.088879  0.981250   23.6137  317.8448  145.0453  20170616  13.5  4.0  C/2013 UQ4 (Catalina)                                    MPC102951
    CK13U10S  2015 11 15.7004  0.823838  1.000329  340.3947  186.1535  148.8767  20170616   4.4  4.0  C/2013 US10 (Catalina)                                   MPC105236
    CK13V010  2014 04 21.0905  1.667852  1.001905   48.1809   72.8234   65.0852  20170616  10.5  4.0  C/2013 V1 (Boattini)                                     MPC102951
    CK13V020  2014 10 13.9243  3.510750  1.002533   94.5089   48.4071   37.8481  20170616   7.0  4.0  C/2013 V2 (Borisov)                                      MPC 10027
    CK13V030  2013 10 28.7604  1.390455  0.889974  339.6204  100.9565   32.1215  20170616  14.0  4.0  C/2013 V3 (Nevski)                                       MPC 88329
    CK13V040  2015 10  7.5256  5.185801  1.001437   40.4504   55.6350   67.8596  20170616   6.0  4.0  C/2013 V4 (Catalina)                                     MPC105236
    CK13V050  2014 09 27.4081  0.627502  0.998140  314.8443  278.8959  154.8677  20170616   9.0  4.0  C/2013 V5 (Oukaimeden)                                   MPC102951
    PK13W010  2020 09 10.3116  1.418881  0.593124    1.3659  117.8598    4.6977  20170616  17.5  4.0  P/2013 W1 (PANSTARRS)                                    MPC 91613
    CK13W020  2014 12  1.2922  4.377562  0.552068  304.2861  178.5543    4.8623  20170616  13.5  2.0  C/2013 W2 (PANSTARRS)                                    MPC 10027
    CK13X010  2016 04 20.7242  1.316471  1.001365  164.7668  131.1988  163.2206  20170616  10.5  2.0  C/2013 X1 (PANSTARRS)                                    MPC105236
    CK13Y020  2014 06 13.7336  1.922325  0.991860  308.9952  243.3280   29.3972  20170616  12.0  4.0  C/2013 Y2 (PANSTARRS)                                    MPC 90768
    PK13Y46G  2017 01 29.5178  1.787676  0.454341  242.3879   48.9080    7.8591  20170616  10.0  4.0  P/2013 YG46 (Spacewatch)                                 MPC101095
    PK14A020  2013 10 27.3658  2.080887  0.648531  356.2979  106.6621   24.5186  20170616  15.0  4.0  P/2014 A2 (Hill)                                         MPC 89728
    PK14A030  2013 04 11.7087  3.535140  0.240682  212.2958  230.4609   13.6956  20170616  12.0  4.0  P/2014 A3 (PANSTARRS)                                    MPC 92981
    CK14A040  2015 09  5.5927  4.178658  1.000572  356.7452   29.7344  121.3679  20170616   6.0  4.0  C/2014 A4 (SONEAR)                                       MPC105236
    CK14A050  2014 08 10.7251  4.801933  0.944664  182.4300  310.0447   31.9730  20170616  10.0  4.0  C/2014 A5 (PANSTARRS)                                    MPC 93585
    CK14A52A  2015 02 27.6861  2.000479  1.000524  292.2118  330.4753  105.1942  20170616  10.0  4.0  C/2014 AA52 (Catalina)                                   MPC 96865
    CK14B010  2017 09 10.3607  9.556619  1.003971  345.8329  161.3964   28.3710  20170616   4.0  4.0  C/2014 B1 (Schwartz)                                     MPC105236
    PK14C010  2019 04 13.1120  1.684952  0.446544   24.0815  167.8584    2.6808  20170616  15.5  4.0  P/2014 C1 (TOTAS)                                        MPC102095
    CK14C020  2014 02 18.0268  0.513725  0.999174   56.1219  283.4293  135.5936  20170616  18.0  4.0  C/2014 C2 (STEREO)                                       MPC 88697
    CK14C030  2014 01 16.3285  1.866035  0.982521  346.0016  204.4954  151.7963  20170616  14.0  4.0  C/2014 C3 (NEOWISE)                                      MPC 90272
    PK14E010  2014 05 22.6829  2.140010  0.423808  185.8863   39.0631   15.9836  20170616  14.0  4.0  P/2014 E1 (Larson)                                       MPC 91614
    CK14E020  2014 07  2.5929  0.662008  0.999105  344.1122   56.5301  156.3479  20170616   7.1  4.4  C/2014 E2 (Jacques)                                      MPC102951
    CK14F010  2013 10  4.5651  3.501174  0.998232    8.2750  239.8418  108.2643  20170616  10.5  4.0  C/2014 F1 (Hill)                                         MPC 90769
    CK14F020  2015 01  2.7297  4.316895  0.970596   86.1221  267.4463  119.0776  20170616   9.5  4.0  C/2014 F2 (Tenagra)                                      MPC 97495
    CK14F030  2021 05  1.9118  5.730787  0.647314    0.9980  327.5069    6.4813  20170616   6.0  4.0  C/2014 F3 (Sheppard-Trujillo)                            MPC 94280
    CK14G010  2013 11  5.3210  5.477810  0.990622   77.1297  337.9592  165.6346  20170616   9.0  4.0  C/2014 G1 (PANSTARRS)                                    MPC 90272
    CK14G030  2015 02  2.1599  4.701643  0.911661  148.0191    4.7058  156.0715  20170616   9.0  4.0  C/2014 G3 (PANSTARRS)                                    MPC101095
    CK14H010  2014 04 15.1990  2.143462  0.984430  169.2661   34.6625   99.9393  20170616  14.5  4.0  C/2014 H1 (Christensen)                                  MPC 88697
    CK14HJ5U  2015 05 18.5490  5.121891  0.766739  145.1183  115.7833    5.8205  20170616  10.5  4.0  C/2014 HU195                                             MPEC 2016-VB6
    CK14J010  2014 06 19.8583  1.711134  0.802447  195.5399   41.9704  159.7049  20170616  17.0  4.0  C/2014 J1 (Catalina)                                     MPC 89010
    PK14L020  2014 07 15.2031  2.231235  0.646427  182.6712  149.3970    5.1855  20170616  12.0  4.0  P/2014 L2 (NEOWISE)                                      MPC 93585
    PK14L030  2014 06 28.8319  1.849539  0.773223  178.5465  115.5270    6.2672  20170616  16.0  4.0  P/2014 L3 (Hill)                                         MPC 90769
    CK14L050  2014 11 25.4223  6.201380  1.001271   45.5634   35.7196  122.8135  20170616   8.0  4.0  C/2014 L5 (Lemmon)                                       MPC 95731
    CK14M010  2015 08 27.5463  5.584076  1.001024  336.9540  234.7300  160.2064  20170616   9.0  4.0  C/2014 M1 (PANSTARRS)                                    MPC103844
    CK14M020  2014 07 18.5014  6.908413  0.994778   40.7614  245.2717   32.4010  20170616   6.0  4.0  C/2014 M2 (Christensen)                                  MPC 95732
    CK14M030  2014 06 21.3566  2.431583  0.981394   93.6400   80.3681  164.9042  20170616  14.0  4.0  C/2014 M3 (Catalina)                                     MPC 90769
    PK14M040  2014 12 27.9677  2.382395  0.595054  147.7965  263.5030    3.3312  20170616  15.0  4.0  P/2014 M4 (PANSTARRS)                                    MPC 91614
    PK14M04G  2013 06 14.0168  3.709051  0.259920  298.7938  311.8125    9.3655  20170616   9.5  4.0  P/2014 MG4 (Spacewatch-PANSTARRS)                        MPC103844
    CK14N020  2014 10  7.7799  2.190162  0.999181  238.0224  143.8732  132.8824  20170616  14.5  4.0  C/2014 N2 (PANSTARRS)                                    MPC 93586
    CK14N030  2015 03 12.8042  3.879848  0.998310  353.4954   19.9328   61.6434  20170616   7.0  4.0  C/2014 N3 (NEOWISE)                                      MPC103844
    PK14O030  2014 04 17.2630  4.636682  0.385697  204.3131   87.6573    7.8067  20170616  10.5  4.0  P/2014 O3 (PANSTARRS)                                    MPC 98560
    CK14O04E  2016 12 10.9180  6.244399  0.999794   65.7585  240.3943   81.3471  20170616  11.0  2.0  C/2014 OE4 (PANSTARRS)                                   MPC105236
    CK14Q010  2015 07  6.3967  0.315627  0.999751  120.1044    8.7470   43.1088  20170616   8.0  4.0  C/2014 Q1 (PANSTARRS)                                    MPC100578
    CK14Q020  2015 01 29.8933  1.291472  0.997575   12.4068   95.0071   80.2653  20170616   2.7 10.0  C/2014 Q2 (Lovejoy)                                      MPC103844
    CK14Q02U  2014 07  9.6943  2.219332  0.990410  320.3522  332.9801  124.8146  20170616  15.0  4.0  C/2014 QU2 (PANSTARRS)                                   MPC 90770
    CK14Q030  2014 11 18.7852  1.648221  0.941664   47.3811   63.1396   89.8993  20170616  -0.5 20.0  C/2014 Q3 (Borisov)                                      MPC102952
    CK14Q060  2015 01  5.9680  4.219916  0.998731    2.4697  326.6317   49.7931  20170616   9.5  4.0  C/2014 Q6 (PANSTARRS)                                    MPC 95732
    CK14R010  2014 11 19.1446  1.347899  0.992653   55.7172  104.0482    9.9241  20170616   6.5  8.8  C/2014 R1 (Borisov)                                      MPC 95211
    CK14R030  2016 08  8.3168  7.275811  0.999352  113.4328  334.1064   90.8415  20170616   6.5  4.0  C/2014 R3 (PANSTARRS)                                    MPC105236
    CK14R040  2014 10 21.0208  1.819231  0.998497  180.8166  279.5323   42.4013  20170616  13.0  4.0  C/2014 R4 (Gibbs)                                        MPC 92982
    PK14R050  2014 06 16.7885  2.386343  0.412272  213.7648  126.5435    1.0882  20170616  15.0  4.0  P/2014 R5 (Lemmon-PANSTARRS)                             MPC 91615
